STARLETTE               
1 07646U 75010A   25099.19015462 -.00000127  00000+0  14753-4 0  9993
2 07646  49.8254  17.6544 0205595  69.3099 292.9702 13.82341854534491
LAGEOS 1                
1 08820U 76039A   25098.29059633 -.00000023  00000+0  00000+0 0  9998
2 08820 109.8634  30.3654 0044418  34.9729 124.7892  6.38665131885369
AJISAI (EGS)            
1 16908U 86061A   25098.91980164 -.00000099  00000+0 -12982-4 0  9992
2 16908  50.0110  42.7502 0011259 154.5062 295.0417 12.44511337426319
COSMOS 1989 (ETALON 1)  
1 19751U 89001C   25099.51179355  .00000043  00000+0  00000+0 0  9997
2 19751  64.7009  87.0537 0023590 216.9237 323.1456  2.13156145282194
COSMOS 2024 (ETALON 2)  
1 20026U 89039C   25099.39285122 -.00000042  00000+0  00000+0 0  9991
2 20026  65.1896 325.4427 0019924 215.5564 316.0892  2.13204551279243
STELLA                  
1 22824U 93061B   25098.97016403 -.00000011  00000+0  14161-4 0  9990
2 22824  98.8317 155.1666 0007350  64.3671  52.7064 14.27453141642826
LARETS                  
1 27944U 03042F   25099.46849298  .00000235  00000+0  54758-4 0  9992
2 27944  98.3573 249.0282 0011356 314.2119  45.8149 14.63739431149991
LARES                   
1 38077U 12006A   25099.15339683 -.00000019  00000+0  12030-3 0  9996
2 38077  69.4909 313.6188 0006371  92.3371 267.8385 12.54931898602711
LARES-2                 
1 53105U 22080A   25099.45873066  .00000020  00000+0  00000+0 0  9990
2 53105  70.1425  94.0767 0004915  69.5850 290.5275  6.38965287 63957
